start=new Date('2021-11-03T00:00:00.000Z').valueOf();
sats=[{"EPHEMERIS_TYPE":"0","OBJECT_NAME":"STARLINK-1732","OBJECT_ID":"2020-070BE","INCLINATION":"53.0527","MEAN_MOTION_DOT":"0.00002153","COUNTRY_CODE":"US","CLASSIFICATION_TYPE":"U","BSTAR":"0.00016336000000","PERIOD":"95.592","REV_AT_EPOCH":"6043","CENTER_NAME":"EARTH","FILE":"3198350","SITE":"AFETR","GP_ID":"188774490","LAUNCH_DATE":"2020-10-06","MEAN_ANOMALY":"280.1927","MEAN_ELEMENT_THEORY":"SGP4","MEAN_MOTION_DDOT":"0.0000000000000","TLE_LINE2":"2 46584  53.0527  85.5464 0001632  79.9246 280.1927 15.06400994 60432","PERIAPSIS":"546.080","SEMIMAJOR_AXIS":"6925.346","ELEMENT_SET_NO":"999","ECCENTRICITY":"0.00016320","TLE_LINE1":"1 46584U 20070BE  21306.66130452  .00002153  00000-0  16336-3 0  9998","EPOCH":"2021-11-02T15:52:16.710528","TIME_SYSTEM":"UTC","OBJECT_TYPE":"PAYLOAD","DECAY_DATE":null,"NORAD_CAT_ID":"46584","APOAPSIS":"548.341","MEAN_MOTION":"15.06400994","REF_FRAME":"TEME","ARG_OF_PERICENTER":"79.9246","RCS_SIZE":"LARGE","RA_OF_ASC_NODE":"85.5464"},{"REV_AT_EPOCH":"6044","CENTER_NAME":"EARTH","FILE":"3198350","SITE":"AFETR","GP_ID":"188774742","OBJECT_ID":"2020-070BF","OBJECT_NAME":"STARLINK-1736","EPHEMERIS_TYPE":"0","INCLINATION":"53.0537","MEAN_MOTION_DOT":"0.00000250","COUNTRY_CODE":"US","CLASSIFICATION_TYPE":"U","BSTAR":"0.00003568800000","PERIOD":"95.592","DECAY_DATE":null,"APOAPSIS":"548.200","NORAD_CAT_ID":"46585","MEAN_MOTION":"15.06396332","REF_FRAME":"TEME","ARG_OF_PERICENTER":"88.9599","RA_OF_ASC_NODE":"85.1817","RCS_SIZE":"LARGE","LAUNCH_DATE":"2020-10-06","TLE_LINE2":"2 46585  53.0537  85.1817 0001408  88.9599 271.1551 15.06396332 60448","MEAN_MOTION_DDOT":"0.0000000000000","MEAN_ANOMALY":"271.1551","MEAN_ELEMENT_THEORY":"SGP4","PERIAPSIS":"546.250","ELEMENT_SET_NO":"999","SEMIMAJOR_AXIS":"6925.360","ECCENTRICITY":"0.00014080","TLE_LINE1":"1 46585U 20070BF  21306.74608360  .00000250  00000-0  35688-4 0  9994","OBJECT_TYPE":"PAYLOAD","TIME_SYSTEM":"UTC","EPOCH":"2021-11-02T17:54:21.623040"},{"CLASSIFICATION_TYPE":"U","BSTAR":"0.00008824200000","PERIOD":"95.592","OBJECT_ID":"2020-070BG","OBJECT_NAME":"STARLINK-1737","EPHEMERIS_TYPE":"0","MEAN_MOTION_DOT":"0.00001033","INCLINATION":"53.0550","COUNTRY_CODE":"US","GP_ID":"188775492","CENTER_NAME":"EARTH","REV_AT_EPOCH":"6043","FILE":"3198350","SITE":"AFETR","TLE_LINE1":"1 46586U 20070BG  21306.66866849  .00001033  00000-0  88242-4 0  9998","OBJECT_TYPE":"PAYLOAD","TIME_SYSTEM":"UTC","EPOCH":"2021-11-02T16:02:52.957536","LAUNCH_DATE":"2020-10-06","TLE_LINE2":"2 46586  53.0550  85.5243 0001503  92.9473 267.1688 15.06405920 60432","MEAN_MOTION_DDOT":"0.0000000000000","MEAN_ANOMALY":"267.1688","MEAN_ELEMENT_THEORY":"SGP4","PERIAPSIS":"546.155","SEMIMAJOR_AXIS":"6925.330","ELEMENT_SET_NO":"999","ECCENTRICITY":"0.00015030","MEAN_MOTION":"15.06405920","ARG_OF_PERICENTER":"92.9473","REF_FRAME":"TEME","RCS_SIZE":"LARGE","RA_OF_ASC_NODE":"85.5243","DECAY_DATE":null,"APOAPSIS":"548.236","NORAD_CAT_ID":"46586"},{"PERIOD":"95.592","BSTAR":"0.00007765300000","CLASSIFICATION_TYPE":"U","COUNTRY_CODE":"US","MEAN_MOTION_DOT":"0.00000875","INCLINATION":"53.0531","OBJECT_NAME":"STARLINK-1746","OBJECT_ID":"2020-070BJ","EPHEMERIS_TYPE":"0","GP_ID":"188773741","SITE":"AFETR","FILE":"3198350","CENTER_NAME":"EARTH","REV_AT_EPOCH":"6044","TIME_SYSTEM":"UTC","OBJECT_TYPE":"PAYLOAD","EPOCH":"2021-11-02T17:11:53.989440","TLE_LINE1":"1 46588U 20070BJ  21306.71659710  .00000875  00000-0  77653-4 0  9990","SEMIMAJOR_AXIS":"6925.355","ELEMENT_SET_NO":"999","ECCENTRICITY":"0.00013590","PERIAPSIS":"546.279","MEAN_MOTION_DDOT":"0.0000000000000","TLE_LINE2":"2 46588  53.0531  85.2984 0001359  97.4668 262.6476 15.06397922 60445","MEAN_ANOMALY":"262.6476","MEAN_ELEMENT_THEORY":"SGP4","LAUNCH_DATE":"2020-10-06","RA_OF_ASC_NODE":"85.2984","RCS_SIZE":"LARGE","ARG_OF_PERICENTER":"97.4668","REF_FRAME":"TEME","MEAN_MOTION":"15.06397922","NORAD_CAT_ID":"46588","APOAPSIS":"548.161","DECAY_DATE":null},{"REV_AT_EPOCH":"6043","CENTER_NAME":"EARTH","FILE":"3198350","SITE":"AFETR","GP_ID":"188773991","OBJECT_ID":"2020-070BK","OBJECT_NAME":"STARLINK-1749","EPHEMERIS_TYPE":"0","INCLINATION":"53.0548","MEAN_MOTION_DOT":"0.00000929","COUNTRY_CODE":"US","CLASSIFICATION_TYPE":"U","BSTAR":"0.00008127000000","PERIOD":"95.592","DECAY_DATE":null,"APOAPSIS":"548.231","NORAD_CAT_ID":"46589","MEAN_MOTION":"15.06396888","REF_FRAME":"TEME","ARG_OF_PERICENTER":"83.2988","RCS_SIZE":"LARGE","RA_OF_ASC_NODE":"85.3354","LAUNCH_DATE":"2020-10-06","MEAN_MOTION_DDOT":"0.0000000000000","TLE_LINE2":"2 46589  53.0548  85.3354 0001456  83.2988 276.8167 15.06396888 60435","MEAN_ANOMALY":"276.8167","MEAN_ELEMENT_THEORY":"SGP4","PERIAPSIS":"546.215","ELEMENT_SET_NO":"999","SEMIMAJOR_AXIS":"6925.358","ECCENTRICITY":"0.00014560","TLE_LINE1":"1 46589U 20070BK  21306.70922908  .00000929  00000-0  81270-4 0  9992","TIME_SYSTEM":"UTC","OBJECT_TYPE":"PAYLOAD","EPOCH":"2021-11-02T17:01:17.392512"},{"LAUNCH_DATE":"2020-10-06","MEAN_ANOMALY":"279.3039","MEAN_ELEMENT_THEORY":"SGP4","MEAN_MOTION_DDOT":"0.0000000000000","TLE_LINE2":"2 46590  53.0509   7.1766 0001994  80.8188 279.3039 15.33936044 61526","PERIAPSIS":"462.720","SEMIMAJOR_AXIS":"6842.220","ECCENTRICITY":"0.00019940","ELEMENT_SET_NO":"999","TLE_LINE1":"1 46590U 20070BL  21306.83363527  .00269105  00000-0  78075-2 0  9994","EPOCH":"2021-11-02T20:00:26.087328","TIME_SYSTEM":"UTC","OBJECT_TYPE":"PAYLOAD","DECAY_DATE":null,"APOAPSIS":"465.449","NORAD_CAT_ID":"46590","MEAN_MOTION":"15.33936044","REF_FRAME":"TEME","ARG_OF_PERICENTER":"80.8188","RA_OF_ASC_NODE":"7.1766","RCS_SIZE":"LARGE","EPHEMERIS_TYPE":"0","OBJECT_ID":"2020-070BL","OBJECT_NAME":"STARLINK-1754","INCLINATION":"53.0509","MEAN_MOTION_DOT":"0.00269105","COUNTRY_CODE":"US","CLASSIFICATION_TYPE":"U","BSTAR":"0.00780750000000","PERIOD":"93.876","REV_AT_EPOCH":"6152","CENTER_NAME":"EARTH","FILE":"3198088","SITE":"AFETR","GP_ID":"188747001"},{"LAUNCH_DATE":"2020-10-06","TLE_LINE2":"2 46591  53.0564  85.4020 0001647  76.2779 283.8393 15.06389315 59499","MEAN_MOTION_DDOT":"0.0000000000000","MEAN_ANOMALY":"283.8393","MEAN_ELEMENT_THEORY":"SGP4","PERIAPSIS":"546.106","SEMIMAJOR_AXIS":"6925.381","ELEMENT_SET_NO":"999","ECCENTRICITY":"0.00016470","TLE_LINE1":"1 46591U 20070BM  21306.69817199 -.00001105  00000-0 -55336-4 0  9991","TIME_SYSTEM":"UTC","OBJECT_TYPE":"PAYLOAD","EPOCH":"2021-11-02T16:45:22.059936","DECAY_DATE":null,"NORAD_CAT_ID":"46591","APOAPSIS":"548.387","MEAN_MOTION":"15.06389315","ARG_OF_PERICENTER":"76.2779","REF_FRAME":"TEME","RCS_SIZE":"LARGE","RA_OF_ASC_NODE":"85.4020","OBJECT_NAME":"STARLINK-1755","OBJECT_ID":"2020-070BM","EPHEMERIS_TYPE":"0","MEAN_MOTION_DOT":"-0.00001105","INCLINATION":"53.0564","COUNTRY_CODE":"US","CLASSIFICATION_TYPE":"U","BSTAR":"-0.00005533600000","PERIOD":"95.593","REV_AT_EPOCH":"5949","CENTER_NAME":"EARTH","FILE":"3198350","SITE":"AFETR","GP_ID":"188774993"},{"MEAN_ELEMENT_THEORY":"SGP4","MEAN_ANOMALY":"281.5671","MEAN_MOTION_DDOT":"0.0000000000000","TLE_LINE2":"2 46671  53.0540 174.4736 0001627  78.5501 281.5671 15.06383481 57749","LAUNCH_DATE":"2020-10-18","ELEMENT_SET_NO":"999","SEMIMAJOR_AXIS":"6925.399","ECCENTRICITY":"0.00016270","PERIAPSIS":"546.137","TLE_LINE1":"1 46671U 20073B   21306.90272723  .00002501  00000-0  18683-3 0  9997","EPOCH":"2021-11-02T21:39:55.632672","OBJECT_TYPE":"PAYLOAD","TIME_SYSTEM":"UTC","DECAY_DATE":null,"NORAD_CAT_ID":"46671","APOAPSIS":"548.391","MEAN_MOTION":"15.06383481","RA_OF_ASC_NODE":"174.4736","RCS_SIZE":"LARGE","REF_FRAME":"TEME","ARG_OF_PERICENTER":"78.5501","MEAN_MOTION_DOT":"0.00002501","INCLINATION":"53.0540","EPHEMERIS_TYPE":"0","OBJECT_NAME":"STARLINK-1715","OBJECT_ID":"2020-073B","COUNTRY_CODE":"US","CLASSIFICATION_TYPE":"U","PERIOD":"95.593","BSTAR":"0.00018683000000","FILE":"3198350","REV_AT_EPOCH":"5774","CENTER_NAME":"EARTH","SITE":"AFETR","GP_ID":"188775250"},{"APOAPSIS":"548.421","NORAD_CAT_ID":"46672","DECAY_DATE":null,"RCS_SIZE":"LARGE","RA_OF_ASC_NODE":"169.5866","ARG_OF_PERICENTER":"81.0192","REF_FRAME":"TEME","MEAN_MOTION":"15.06395270","SEMIMAJOR_AXIS":"6925.363","ELEMENT_SET_NO":"999","ECCENTRICITY":"0.00017220","PERIAPSIS":"546.036","TLE_LINE2":"2 46672  53.0524 169.5866 0001722  81.0192 279.0992 15.06395270 57817","MEAN_MOTION_DDOT":"0.0000000000000","MEAN_ELEMENT_THEORY":"SGP4","MEAN_ANOMALY":"279.0992","LAUNCH_DATE":"2020-10-18","OBJECT_TYPE":"PAYLOAD","TIME_SYSTEM":"UTC","EPOCH":"2021-11-02T21:02:07.283616","TLE_LINE1":"1 46672U 20073C   21306.87647319  .00001439  00000-0  11548-3 0  9993","SITE":"AFETR","FILE":"3198350","REV_AT_EPOCH":"5781","CENTER_NAME":"EARTH","GP_ID":"188775001","COUNTRY_CODE":"US","MEAN_MOTION_DOT":"0.00001439","INCLINATION":"53.0524","OBJECT_NAME":"STARLINK-1716","OBJECT_ID":"2020-073C","EPHEMERIS_TYPE":"0","PERIOD":"95.592","BSTAR":"0.00011548000000","CLASSIFICATION_TYPE":"U"},{"MEAN_MOTION_DOT":"-0.00000679","INCLINATION":"53.0539","OBJECT_ID":"2020-073D","OBJECT_NAME":"STARLINK-1717","EPHEMERIS_TYPE":"0","COUNTRY_CODE":"US","CLASSIFICATION_TYPE":"U","PERIOD":"95.592","BSTAR":"-0.00002667700000","FILE":"3198350","REV_AT_EPOCH":"5760","CENTER_NAME":"EARTH","SITE":"AFETR","GP_ID":"188774249","MEAN_MOTION_DDOT":"0.0000000000000","TLE_LINE2":"2 46673  53.0539 184.4331 0001665  67.9028 292.2138 15.06395013 57605","MEAN_ANOMALY":"292.2138","MEAN_ELEMENT_THEORY":"SGP4","LAUNCH_DATE":"2020-10-18","SEMIMAJOR_AXIS":"6925.364","ELEMENT_SET_NO":"999","ECCENTRICITY":"0.00016650","PERIAPSIS":"546.076","TLE_LINE1":"1 46673U 20073D   21306.91285241 -.00000679  00000-0 -26677-4 0  9998","TIME_SYSTEM":"UTC","OBJECT_TYPE":"PAYLOAD","EPOCH":"2021-11-02T21:54:30.448224","DECAY_DATE":null,"APOAPSIS":"548.382","NORAD_CAT_ID":"46673","MEAN_MOTION":"15.06395013","RA_OF_ASC_NODE":"184.4331","RCS_SIZE":"LARGE","ARG_OF_PERICENTER":"67.9028","REF_FRAME":"TEME"}];
